start=new Date('2021-10-07T00:00:00.000Z').valueOf();
sats=[{"EPHEMERIS_TYPE":"0","OBJECT_NAME":"STARLINK-2410","MEAN_MOTION_DDOT":"0.0000000000000","COUNTRY_CODE":"US","CENTER_NAME":"EARTH","GP_ID":"186424242","APOAPSIS":"548.104","ELEMENT_SET_NO":"999","SEMIMAJOR_AXIS":"6925.380","INCLINATION":"53.0541","RA_OF_ASC_NODE":"302.6529","EPOCH":"2021-10-06T11:01:45.568416","BSTAR":"0.00013495000000","CLASSIFICATION_TYPE":"U","ECCENTRICITY":"0.00012400","TIME_SYSTEM":"UTC","DECAY_DATE":null,"PERIAPSIS":"546.386","MEAN_MOTION":"15.06389819","TLE_LINE2":"2 47825  53.0541 302.6529 0001240  89.9328 270.1803 15.06389819 33141","OBJECT_TYPE":"PAYLOAD","SITE":"AFETR","PERIOD":"95.593","FILE":"3148521","MEAN_ELEMENT_THEORY":"SGP4","MEAN_ANOMALY":"270.1803","REV_AT_EPOCH":"3314","OBJECT_ID":"2021-018AQ","NORAD_CAT_ID":"47825","REF_FRAME":"TEME","ARG_OF_PERICENTER":"89.9328","MEAN_MOTION_DOT":"0.00001729","TLE_LINE1":"1 47825U 21018AQ  21279.45955519  .00001729  00000-0  13495-3 0  9996","LAUNCH_DATE":"2021-03-11","RCS_SIZE":"LARGE"},{"DECAY_DATE":null,"ECCENTRICITY":"0.00012740","TIME_SYSTEM":"UTC","MEAN_MOTION":"15.06393512","TLE_LINE2":"2 47826  53.0557 301.4934 0001274  71.1094 289.0033 15.06393512 33189","PERIOD":"95.593","SITE":"AFETR","OBJECT_TYPE":"PAYLOAD","PERIAPSIS":"546.351","NORAD_CAT_ID":"47826","REF_FRAME":"TEME","OBJECT_ID":"2021-018AR","MEAN_MOTION_DOT":"0.00000155","ARG_OF_PERICENTER":"71.1094","FILE":"3148521","REV_AT_EPOCH":"3318","MEAN_ELEMENT_THEORY":"SGP4","MEAN_ANOMALY":"289.0033","LAUNCH_DATE":"2021-03-11","TLE_LINE1":"1 47826U 21018AR  21279.72125626  .00000155  00000-0  29323-4 0  9995","RCS_SIZE":"LARGE","COUNTRY_CODE":"US","MEAN_MOTION_DDOT":"0.0000000000000","EPHEMERIS_TYPE":"0","OBJECT_NAME":"STARLINK-2411","APOAPSIS":"548.116","GP_ID":"186424492","CENTER_NAME":"EARTH","SEMIMAJOR_AXIS":"6925.368","INCLINATION":"53.0557","EPOCH":"2021-10-06T17:18:36.540864","RA_OF_ASC_NODE":"301.4934","ELEMENT_SET_NO":"999","BSTAR":"0.00002932300000","CLASSIFICATION_TYPE":"U"},{"MEAN_MOTION_DDOT":"0.0000000000000","OBJECT_NAME":"STARLINK-2413","EPHEMERIS_TYPE":"0","COUNTRY_CODE":"US","APOAPSIS":"548.151","GP_ID":"186425743","CENTER_NAME":"EARTH","ELEMENT_SET_NO":"999","INCLINATION":"53.0567","SEMIMAJOR_AXIS":"6925.378","EPOCH":"2021-10-06T13:09:06.608160","RA_OF_ASC_NODE":"292.2695","CLASSIFICATION_TYPE":"U","BSTAR":"0.00001151200000","TIME_SYSTEM":"UTC","ECCENTRICITY":"0.00013110","DECAY_DATE":null,"PERIAPSIS":"546.336","TLE_LINE2":"2 47827  53.0567 292.2695 0001311  78.0497 282.0639 15.06390256 33353","MEAN_MOTION":"15.06390256","PERIOD":"95.593","OBJECT_TYPE":"PAYLOAD","SITE":"AFETR","FILE":"3148521","REV_AT_EPOCH":"3335","MEAN_ELEMENT_THEORY":"SGP4","MEAN_ANOMALY":"282.0639","REF_FRAME":"TEME","NORAD_CAT_ID":"47827","OBJECT_ID":"2021-018AS","MEAN_MOTION_DOT":"-0.00000110","ARG_OF_PERICENTER":"78.0497","LAUNCH_DATE":"2021-03-11","TLE_LINE1":"1 47827U 21018AS  21279.54799315 -.00000110  00000-0  11512-4 0  9991","RCS_SIZE":"LARGE"},{"EPOCH":"2021-10-06T13:44:57.569856","RA_OF_ASC_NODE":"312.1567","SEMIMAJOR_AXIS":"6925.372","INCLINATION":"53.0557","ELEMENT_SET_NO":"999","CLASSIFICATION_TYPE":"U","BSTAR":"-0.00001717600000","COUNTRY_CODE":"US","MEAN_MOTION_DDOT":"0.0000000000000","EPHEMERIS_TYPE":"0","OBJECT_NAME":"STARLINK-2415","APOAPSIS":"548.124","CENTER_NAME":"EARTH","GP_ID":"186425994","ARG_OF_PERICENTER":"82.8287","MEAN_MOTION_DOT":"-0.00000537","REF_FRAME":"TEME","NORAD_CAT_ID":"47828","OBJECT_ID":"2021-018AT","REV_AT_EPOCH":"3302","MEAN_ELEMENT_THEORY":"SGP4","MEAN_ANOMALY":"277.2848","FILE":"3148521","RCS_SIZE":"LARGE","LAUNCH_DATE":"2021-03-11","TLE_LINE1":"1 47828U 21018AT  21279.57288854 -.00000537  00000-0 -17176-4 0  9992","DECAY_DATE":null,"TIME_SYSTEM":"UTC","ECCENTRICITY":"0.00012800","PERIOD":"95.593","OBJECT_TYPE":"PAYLOAD","SITE":"AFETR","MEAN_MOTION":"15.06392321","TLE_LINE2":"2 47828  53.0557 312.1567 0001280  82.8287 277.2848 15.06392321 33025","PERIAPSIS":"546.351"},{"MEAN_ELEMENT_THEORY":"SGP4","MEAN_ANOMALY":"277.4097","REV_AT_EPOCH":"3301","FILE":"3148521","ARG_OF_PERICENTER":"82.7031","MEAN_MOTION_DOT":"0.00000283","OBJECT_ID":"2021-018AU","NORAD_CAT_ID":"47829","REF_FRAME":"TEME","RCS_SIZE":"LARGE","TLE_LINE1":"1 47829U 21018AU  21279.59132395  .00000283  00000-0  37868-4 0  9999","LAUNCH_DATE":"2021-03-11","ECCENTRICITY":"0.00012180","TIME_SYSTEM":"UTC","DECAY_DATE":null,"PERIAPSIS":"546.399","OBJECT_TYPE":"PAYLOAD","SITE":"AFETR","PERIOD":"95.593","MEAN_MOTION":"15.06390692","TLE_LINE2":"2 47829  53.0556 312.0786 0001218  82.7031 277.4097 15.06390692 33010","ELEMENT_SET_NO":"999","EPOCH":"2021-10-06T14:11:30.389280","RA_OF_ASC_NODE":"312.0786","INCLINATION":"53.0556","SEMIMAJOR_AXIS":"6925.377","CLASSIFICATION_TYPE":"U","BSTAR":"0.00003786800000","OBJECT_NAME":"STARLINK-2416","EPHEMERIS_TYPE":"0","MEAN_MOTION_DDOT":"0.0000000000000","COUNTRY_CODE":"US","GP_ID":"186424742","CENTER_NAME":"EARTH","APOAPSIS":"548.086"},{"OBJECT_TYPE":"PAYLOAD","SITE":"AFETR","PERIOD":"95.592","MEAN_MOTION":"15.06400836","TLE_LINE2":"2 47830  53.0569 312.3896 0001228  82.8560 277.2569 15.06400836 33003","PERIAPSIS":"546.361","DECAY_DATE":null,"TIME_SYSTEM":"UTC","ECCENTRICITY":"0.00012280","RCS_SIZE":"LARGE","TLE_LINE1":"1 47830U 21018AV  21279.52127700  .00000968  00000-0  83848-4 0  9997","LAUNCH_DATE":"2021-03-11","MEAN_MOTION_DOT":"0.00000968","ARG_OF_PERICENTER":"82.8560","OBJECT_ID":"2021-018AV","REF_FRAME":"TEME","NORAD_CAT_ID":"47830","MEAN_ANOMALY":"277.2569","MEAN_ELEMENT_THEORY":"SGP4","REV_AT_EPOCH":"3300","FILE":"3148521","CENTER_NAME":"EARTH","GP_ID":"186424992","APOAPSIS":"548.061","COUNTRY_CODE":"US","OBJECT_NAME":"STARLINK-2419","EPHEMERIS_TYPE":"0","MEAN_MOTION_DDOT":"0.0000000000000","CLASSIFICATION_TYPE":"U","BSTAR":"0.00008384800000","EPOCH":"2021-10-06T12:30:38.332800","RA_OF_ASC_NODE":"312.3896","INCLINATION":"53.0569","SEMIMAJOR_AXIS":"6925.346","ELEMENT_SET_NO":"999"},{"PERIAPSIS":"546.541","MEAN_MOTION":"15.06391037","TLE_LINE2":"2 47831  53.0519 286.4590 0001011  75.0687 285.0414 15.06391037 33441","PERIOD":"95.593","SITE":"AFETR","OBJECT_TYPE":"PAYLOAD","ECCENTRICITY":"0.00010110","TIME_SYSTEM":"UTC","DECAY_DATE":null,"LAUNCH_DATE":"2021-03-11","TLE_LINE1":"1 47831U 21018AW  21279.72721294 -.00000353  00000-0 -48512-5 0  9998","RCS_SIZE":"LARGE","FILE":"3148521","REV_AT_EPOCH":"3344","MEAN_ANOMALY":"285.0414","MEAN_ELEMENT_THEORY":"SGP4","NORAD_CAT_ID":"47831","REF_FRAME":"TEME","OBJECT_ID":"2021-018AW","ARG_OF_PERICENTER":"75.0687","MEAN_MOTION_DOT":"-0.00000353","APOAPSIS":"547.941","CENTER_NAME":"EARTH","GP_ID":"186425244","MEAN_MOTION_DDOT":"0.0000000000000","EPHEMERIS_TYPE":"0","OBJECT_NAME":"STARLINK-2420","COUNTRY_CODE":"US","CLASSIFICATION_TYPE":"U","BSTAR":"-0.00000485120000","ELEMENT_SET_NO":"999","SEMIMAJOR_AXIS":"6925.376","INCLINATION":"53.0519","EPOCH":"2021-10-06T17:27:11.198016","RA_OF_ASC_NODE":"286.4590"},{"PERIAPSIS":"546.252","TLE_LINE2":"2 47832  53.0557 302.2858 0001431  84.4559 275.6593 15.06390487 33155","MEAN_MOTION":"15.06390487","OBJECT_TYPE":"PAYLOAD","SITE":"AFETR","PERIOD":"95.593","TIME_SYSTEM":"UTC","ECCENTRICITY":"0.00014310","DECAY_DATE":null,"TLE_LINE1":"1 47832U 21018AX  21279.54432256 -.00000414  00000-0 -89255-5 0  9993","LAUNCH_DATE":"2021-03-11","RCS_SIZE":"LARGE","FILE":"3148521","MEAN_ELEMENT_THEORY":"SGP4","MEAN_ANOMALY":"275.6593","REV_AT_EPOCH":"3315","OBJECT_ID":"2021-018AX","NORAD_CAT_ID":"47832","REF_FRAME":"TEME","ARG_OF_PERICENTER":"84.4559","MEAN_MOTION_DOT":"-0.00000414","GP_ID":"186425495","CENTER_NAME":"EARTH","APOAPSIS":"548.234","EPHEMERIS_TYPE":"0","OBJECT_NAME":"STARLINK-2422","MEAN_MOTION_DDOT":"0.0000000000000","COUNTRY_CODE":"US","BSTAR":"-0.00000892550000","CLASSIFICATION_TYPE":"U","ELEMENT_SET_NO":"999","INCLINATION":"53.0557","SEMIMAJOR_AXIS":"6925.378","EPOCH":"2021-10-06T13:03:49.469184","RA_OF_ASC_NODE":"302.2858"},{"MEAN_MOTION":"15.06390236","TLE_LINE2":"2 47833  53.0559 303.0633 0001196  75.8922 284.2199 15.06390236 33187","SITE":"AFETR","OBJECT_TYPE":"PAYLOAD","PERIOD":"95.593","PERIAPSIS":"546.415","DECAY_DATE":null,"ECCENTRICITY":"0.00011960","TIME_SYSTEM":"UTC","TLE_LINE1":"1 47833U 21018AY  21279.37108948 -.00000133  00000-0  99712-5 0  9999","LAUNCH_DATE":"2021-03-11","RCS_SIZE":"LARGE","OBJECT_ID":"2021-018AY","NORAD_CAT_ID":"47833","REF_FRAME":"TEME","MEAN_MOTION_DOT":"-0.00000133","ARG_OF_PERICENTER":"75.8922","FILE":"3147912","MEAN_ELEMENT_THEORY":"SGP4","MEAN_ANOMALY":"284.2199","REV_AT_EPOCH":"3318","GP_ID":"186363943","CENTER_NAME":"EARTH","APOAPSIS":"548.072","COUNTRY_CODE":"US","EPHEMERIS_TYPE":"0","OBJECT_NAME":"STARLINK-2423","MEAN_MOTION_DDOT":"0.0000000000000","CLASSIFICATION_TYPE":"U","BSTAR":"0.00000997120000","SEMIMAJOR_AXIS":"6925.378","INCLINATION":"53.0559","RA_OF_ASC_NODE":"303.0633","EPOCH":"2021-10-06T08:54:22.131072","ELEMENT_SET_NO":"999"},{"APOAPSIS":"548.066","GP_ID":"186424493","CENTER_NAME":"EARTH","COUNTRY_CODE":"US","MEAN_MOTION_DDOT":"0.0000000000000","OBJECT_NAME":"STARLINK-2424","EPHEMERIS_TYPE":"0","BSTAR":"-0.00001706200000","CLASSIFICATION_TYPE":"U","EPOCH":"2021-10-06T10:45:49.394304","RA_OF_ASC_NODE":"302.7135","INCLINATION":"53.0555","SEMIMAJOR_AXIS":"6925.385","ELEMENT_SET_NO":"999","PERIOD":"95.593","OBJECT_TYPE":"PAYLOAD","SITE":"AFETR","TLE_LINE2":"2 47834  53.0555 302.7135 0001178  81.0924 279.0198 15.06388002 33198","MEAN_MOTION":"15.06388002","PERIAPSIS":"546.435","DECAY_DATE":null,"TIME_SYSTEM":"UTC","ECCENTRICITY":"0.00011780","RCS_SIZE":"LARGE","LAUNCH_DATE":"2021-03-11","TLE_LINE1":"1 47834U 21018AZ  21279.44848836 -.00000535  00000-0 -17062-4 0  9999","ARG_OF_PERICENTER":"81.0924","MEAN_MOTION_DOT":"-0.00000535","NORAD_CAT_ID":"47834","REF_FRAME":"TEME","OBJECT_ID":"2021-018AZ","REV_AT_EPOCH":"3319","MEAN_ELEMENT_THEORY":"SGP4","MEAN_ANOMALY":"279.0198","FILE":"3148521"}];
